{"type": "FeatureCollection", "features": [ {"type": "Feature", "properties": {"norad_id": 31442, "name": "FENGYUN 1C DEB", "group": "fengyun-1c-debris", "lat": 31.594188180148063, "lon": 72.35728954568083, "alt_km": 729.8319728954293, "timestamp": "2025-12-17T17:50:19.533392+00:00", "meta": {"OBJECT_NAME": "FENGYUN 1C DEB", "OBJECT_ID": "1999-025BUE", "EPOCH": "2025-12-13T23:15:38.407392", "MEAN_MOTION": 14.33932663, "ECCENTRICITY": 0.0079016, "INCLINATION": 98.5308, "RA_OF_ASC_NODE": 73.932, "ARG_OF_PERICENTER": 9.0794, "MEAN_ANOMALY": 351.1798, "EPHEMERIS_TYPE": 0, "CLASSIFICATION_TYPE": "U", "NORAD_CAT_ID": 31442, "ELEMENT_SET_NO": 999, "REV_AT_EPOCH": 97378, "BSTAR": 0.00046189361, "MEAN_MOTION_DOT": 1.29e-05, "MEAN_MOTION_DDOT": 0}, "tle": {"line1": "1 31442U 99025BUE 25347.96919453  .00001290  00000+0  46189-3 0  9998", "line2": "2 31442  98.5308  73.9320 0079016   9.0794 351.1798 14.33932663973783"}}, "geometry": {"type": "Point", "coordinates": [72.35728954568083, 31.594188180148063]}}, {"type": "Feature", "properties": {"norad_id": 31443, "name": "FENGYUN 1C DEB", "group": "fengyun-1c-debris", "lat": 2.0512021081319336, "lon": 91.34106910557485, "alt_km": 708.8655719749449, "timestamp": "2025-12-17T17:50:19.533402+00:00", "meta": {"OBJECT_NAME": "FENGYUN 1C DEB", "OBJECT_ID": "1999-025BUF", "EPOCH": "2025-12-14T00:19:13.940256", "MEAN_MOTION": 14.48704109, "ECCENTRICITY": 0.01917925, "INCLINATION": 99.2105, "RA_OF_ASC_NODE": 87.6059, "ARG_OF_PERICENTER": 94.4301, "MEAN_ANOMALY": 267.8828, "EPHEMERIS_TYPE": 0, "CLASSIFICATION_TYPE": "U", "NORAD_CAT_ID": 31443, "ELEMENT_SET_NO": 999, "REV_AT_EPOCH": 66960, "BSTAR": 0.0013945487, "MEAN_MOTION_DOT": 6.586e-05, "MEAN_MOTION_DDOT": 0}, "tle": {"line1": "1 31443U 99025BUF 25348.01335579  .00006586  00000+0  13945-2 0  9993", "line2": "2 31443  99.2105  87.6059 0191792  94.4301 267.8828 14.48704109669604"}}, "geometry": {"type": "Point", "coordinates": [91.34106910557485, 2.0512021081319336]}}, {"type": "Feature", "properties": {"norad_id": 31444, "name": "FENGYUN 1C DEB", "group": "fengyun-1c-debris", "lat": -3.899857810664182, "lon": -65.13639273137424, "alt_km": 642.9215253790817, "timestamp": "2025-12-17T17:50:19.533412+00:00", "meta": {"OBJECT_NAME": "FENGYUN 1C DEB", "OBJECT_ID": "1999-025BUG", "EPOCH": "2025-12-15T13:34:49.333728", "MEAN_MOTION": 14.69963952, "ECCENTRICITY": 0.00627859, "INCLINATION": 98.9275, "RA_OF_ASC_NODE": 291.8692, "ARG_OF_PERICENTER": 63.9063, "MEAN_ANOMALY": 296.8584, "EPHEMERIS_TYPE": 0, "CLASSIFICATION_TYPE": "U", "NORAD_CAT_ID": 31444, "ELEMENT_SET_NO": 999, "REV_AT_EPOCH": 97530, "BSTAR": 0.00094331949, "MEAN_MOTION_DOT": 5.769e-05, "MEAN_MOTION_DDOT": 0}, "tle": {"line1": "1 31444U 99025BUG 25349.56584877  .00005769  00000+0  94332-3 0  9994", "line2": "2 31444  98.9275 291.8692 0062785  63.9063 296.8584 14.69963952975300"}}, "geometry": {"type": "Point", "coordinates": [-65.13639273137424, -3.899857810664182]}}, {"type": "Feature", "properties": {"norad_id": 31447, "name": "FENGYUN 1C DEB", "group": "fengyun-1c-debris", "lat": -70.14786447230753, "lon": 59.12560239671422, "alt_km": 717.0559828317446, "timestamp": "2025-12-17T17:50:19.533421+00:00", "meta": {"OBJECT_NAME": "FENGYUN 1C DEB", "OBJECT_ID": "1999-025BUK", "EPOCH": "2025-12-14T21:01:38.356896", "MEAN_MOTION": 14.2403744, "ECCENTRICITY": 0.02304397, "INCLINATION": 98.9919, "RA_OF_ASC_NODE": 30.1793, "ARG_OF_PERICENTER": 349.1545, "MEAN_ANOMALY": 10.471, "EPHEMERIS_TYPE": 0, "CLASSIFICATION_TYPE": "U", "NORAD_CAT_ID": 31447, "ELEMENT_SET_NO": 999, "REV_AT_EPOCH": 64882, "BSTAR": 0.00018562598, "MEAN_MOTION_DOT": 5.08e-06, "MEAN_MOTION_DDOT": 0}, "tle": {"line1": "1 31447U 99025BUK 25348.87613839  .00000508  00000+0  18563-3 0  9999", "line2": "2 31447  98.9919  30.1793 0230439 349.1545  10.4710 14.24037440648821"}}, "geometry": {"type": "Point", "coordinates": [59.12560239671422, -70.14786447230753]}}, {"type": "Feature", "properties": {"norad_id": 31448, "name": "FENGYUN 1C DEB", "group": "fengyun-1c-debris", "lat": 12.52719930117152, "lon": 0.9948790517398167, "alt_km": 842.2959682416422, "timestamp": "2025-12-17T17:50:19.533431+00:00", "meta": {"OBJECT_NAME": "FENGYUN 1C DEB", "OBJECT_ID": "1999-025BUL", "EPOCH": "2025-12-11T07:02:55.403520", "MEAN_MOTION": 14.278066, "ECCENTRICITY": 0.00588763, "INCLINATION": 98.5011, "RA_OF_ASC_NODE": 356.6233, "ARG_OF_PERICENTER": 208.3666, "MEAN_ANOMALY": 151.4306, "EPHEMERIS_TYPE": 0, "CLASSIFICATION_TYPE": "U", "NORAD_CAT_ID": 31448, "ELEMENT_SET_NO": 999, "REV_AT_EPOCH": 64283, "BSTAR": 0.0011152887, "MEAN_MOTION_DOT": 2.766e-05, "MEAN_MOTION_DDOT": 0}, "tle": {"line1": "1 31448U 99025BUL 25345.29369680  .00002766  00000+0  11153-2 0  9990", "line2": "2 31448  98.5011 356.6233 0058876 208.3666 151.4306 14.27806600642836"}}, "geometry": {"type": "Point", "coordinates": [0.9948790517398167, 12.52719930117152]}}, {"type": "Feature", "properties": {"norad_id": 31449, "name": "FENGYUN 1C DEB", "group": "fengyun-1c-debris", "lat": 75.69127087480592, "lon": -93.62605787028838, "alt_km": 863.2694969732611, "timestamp": "2025-12-17T17:50:19.533441+00:00", "meta": {"OBJECT_NAME": "FENGYUN 1C DEB", "OBJECT_ID": "1999-025BUM", "EPOCH": "2025-12-10T21:12:43.510752", "MEAN_MOTION": 14.33705066, "ECCENTRICITY": 0.0144053, "INCLINATION": 98.5553, "RA_OF_ASC_NODE": 43.4188, "ARG_OF_PERICENTER": 274.279, "MEAN_ANOMALY": 84.1945, "EPHEMERIS_TYPE": 0, "CLASSIFICATION_TYPE": "U", "NORAD_CAT_ID": 31449, "ELEMENT_SET_NO": 999, "REV_AT_EPOCH": 97610, "BSTAR": 0.00033048, "MEAN_MOTION_DOT": 9.81e-06, "MEAN_MOTION_DDOT": 0}, "tle": {"line1": "1 31449U 99025BUM 25344.88383693  .00000981  00000+0  33048-3 0  9990", "line2": "2 31449  98.5553  43.4188 0144053 274.2790  84.1945 14.33705066976103"}}, "geometry": {"type": "Point", "coordinates": [-93.62605787028838, 75.69127087480592]}}, {"type": "Feature", "properties": {"norad_id": 31451, "name": "FENGYUN 1C DEB", "group": "fengyun-1c-debris", "lat": -51.717999113671006, "lon": -157.55564488173104, "alt_km": 835.3723090167932, "timestamp": "2025-12-17T17:50:19.533452+00:00", "meta": {"OBJECT_NAME": "FENGYUN 1C DEB", "OBJECT_ID": "1999-025BUP", "EPOCH": "2025-12-17T01:35:52.740960", "MEAN_MOTION": 14.13630438, "ECCENTRICITY": 0.00314143, "INCLINATION": 98.7632, "RA_OF_ASC_NODE": 33.0517, "ARG_OF_PERICENTER": 198.9237, "MEAN_ANOMALY": 191.5319, "EPHEMERIS_TYPE": 0, "CLASSIFICATION_TYPE": "U", "NORAD_CAT_ID": 31451, "ELEMENT_SET_NO": 999, "REV_AT_EPOCH": 96071, "BSTAR": 0.00034950868, "MEAN_MOTION_DOT": 6.19e-06, "MEAN_MOTION_DDOT": 0}, "tle": {"line1": "1 31451U 99025BUP 25351.06658265  .00000619  00000+0  34951-3 0  9993", "line2": "2 31451  98.7632  33.0517 0031414 198.9237 191.5319 14.13630438960717"}}, "geometry": {"type": "Point", "coordinates": [-157.55564488173104, -51.717999113671006]}}, {"type": "Feature", "properties": {"norad_id": 31452, "name": "FENGYUN 1C DEB", "group": "fengyun-1c-debris", "lat": 21.938954698202547, "lon": 162.05634560300035, "alt_km": 819.9789320050913, "timestamp": "2025-12-17T17:50:19.533464+00:00", "meta": {"OBJECT_NAME": "FENGYUN 1C DEB", "OBJECT_ID": "1999-025BUQ", "EPOCH": "2025-12-17T05:13:17.668704", "MEAN_MOTION": 14.15174584, "ECCENTRICITY": 0.00409624, "INCLINATION": 98.6577, "RA_OF_ASC_NODE": 338.0277, "ARG_OF_PERICENTER": 115.448, "MEAN_ANOMALY": 245.0941, "EPHEMERIS_TYPE": 0, "CLASSIFICATION_TYPE": "U", "NORAD_CAT_ID": 31452, "ELEMENT_SET_NO": 999, "REV_AT_EPOCH": 96269, "BSTAR": 0.00032143342, "MEAN_MOTION_DOT": 5.87e-06, "MEAN_MOTION_DDOT": 0}, "tle": {"line1": "1 31452U 99025BUQ 25351.21756561  .00000587  00000+0  32143-3 0  9994", "line2": "2 31452  98.6577 338.0277 0040962 115.4480 245.0941 14.15174584962690"}}, "geometry": {"type": "Point", "coordinates": [162.05634560300035, 21.938954698202547]}}, {"type": "Feature", "properties": {"norad_id": 31455, "name": "FENGYUN 1C DEB", "group": "fengyun-1c-debris", "lat": 68.31600534793566, "lon": -42.544902419969915, "alt_km": 714.2680899204597, "timestamp": "2025-12-17T17:50:19.533474+00:00", "meta": {"OBJECT_NAME": "FENGYUN 1C DEB", "OBJECT_ID": "1999-025BUT", "EPOCH": "2025-12-15T05:58:31.432224", "MEAN_MOTION": 14.11432558, "ECCENTRICITY": 0.02185525, "INCLINATION": 98.5743, "RA_OF_ASC_NODE": 337.3687, "ARG_OF_PERICENTER": 44.1098, "MEAN_ANOMALY": 317.7277, "EPHEMERIS_TYPE": 0, "CLASSIFICATION_TYPE": "U", "NORAD_CAT_ID": 31455, "ELEMENT_SET_NO": 999, "REV_AT_EPOCH": 96139, "BSTAR": 0.00031840513, "MEAN_MOTION_DOT": 6.8e-06, "MEAN_MOTION_DDOT": 0}, "tle": {"line1": "1 31455U 99025BUT 25349.24897491  .00000680  00000+0  31841-3 0  9993", "line2": "2 31455  98.5743 337.3687 0218552  44.1098 317.7277 14.11432558961398"}}, "geometry": {"type": "Point", "coordinates": [-42.544902419969915, 68.31600534793566]}}, {"type": "Feature", "properties": {"norad_id": 31456, "name": "FENGYUN 1C DEB", "group": "fengyun-1c-debris", "lat": -66.33920210094459, "lon": -106.03227714111036, "alt_km": 727.4823605151369, "timestamp": "2025-12-17T17:50:19.533484+00:00", "meta": {"OBJECT_NAME": "FENGYUN 1C DEB", "OBJECT_ID": "1999-025BUU", "EPOCH": "2025-12-13T12:47:54.236832", "MEAN_MOTION": 14.42408216, "ECCENTRICITY": 0.00675973, "INCLINATION": 98.5769, "RA_OF_ASC_NODE": 89.8836, "ARG_OF_PERICENTER": 311.9856, "MEAN_ANOMALY": 47.5588, "EPHEMERIS_TYPE": 0, "CLASSIFICATION_TYPE": "U", "NORAD_CAT_ID": 31456, "ELEMENT_SET_NO": 999, "REV_AT_EPOCH": 97478, "BSTAR": 0.0013308034, "MEAN_MOTION_DOT": 4.48e-05, "MEAN_MOTION_DDOT": 0}, "tle": {"line1": "1 31456U 99025BUU 25347.53326663  .00004480  00000+0  13308-2 0  9991", "line2": "2 31456  98.5769  89.8836 0067597 311.9856  47.5588 14.42408216974788"}}, "geometry": {"type": "Point", "coordinates": [-106.03227714111036, -66.33920210094459]}}]}